ONEWEB-0228             
1 48780U 21045P   23207.18099266  .00000260  00000+0  65752-3 0  9999
2 48780  87.9017 109.6758 0001690  76.5046 283.6272 13.15551204105352
